E-ST@R-II               
1 41459U 16025D   21092.63333242  .00002033  00000-0  10364-3 0  9992
2 41459  98.1274 224.3875 0160046 318.2902  40.6213 15.07680740270990
AAUSAT 4                
1 41460U 16025E   21092.81252696  .00002554  00000-0  12369-3 0  9992
2 41460  98.1277 228.0833 0147579 302.7688  55.9393 15.10550849271297
BEESAT-4                
1 41619U 16040W   21092.88741472  .00002543  00000-0  10414-3 0  9994
2 41619  97.2783 151.0773 0009386 232.1806 127.8583 15.25160678253499
CANX-7                  
1 41788U 16059F   21092.76785661  .00015792  00000-0  18735-2 0  9999
2 41788  98.2511 195.1317 0028686 100.3700 260.0475 14.84287815242633
RAVAN                   
1 41849U 16067B   21092.83398063  .00000288  00000-0  28914-4 0  9996
2 41849  97.9548 214.0705 0009102  10.3387 349.8021 14.98962523239968
CELTEE 1                
1 41850U 16067C   21092.84174710  .00000022  00000-0  72080-5 0  9990
2 41850  97.9440 210.8767 0008912  11.7461 348.3967 14.97397726239801
OPTICUBE 04             
1 41851U 16067D   21092.82772146 -.00000269  00000-0 -18033-4 0  9998
2 41851  97.9434 210.3060 0009305  16.1319 344.0196 14.97075542239776
AEROCUBE 8D             
1 41852U 16067E   21092.83875404  .00000044  00000-0  90724-5 0  9998
2 41852  97.9428 210.1794 0009814  14.1848 345.9647 14.97152680239750
AEROCUBE 8C             
1 41853U 16067F   21092.87705004  .00000968  00000-0  89100-4 0  9991
2 41853  97.9431 210.0931 0010255  18.7426 341.4170 14.97124181239757
PROMETHEUS 2-1          
1 41854U 16067G   21092.84082369  .00000374  00000-0  37279-4 0  9992
2 41854  97.9434 210.5963 0010358  12.8602 347.2881 14.97570254239777
PROMETHEUS 2-3          
1 41855U 16067H   21092.83904956  .00000315  00000-0  32262-4 0  9999
2 41855  97.9437 210.6427 0010592  13.2684 346.8814 14.97586355239772
INS-1B                  
1 41954U 17008G   21092.86456781  .00002409  00000-0  96765-4 0  9990
2 41954  97.3148 157.6172 0008832  11.0082 349.1348 15.25871869229488
BGUSAT                  
1 41999U 17008BD  21092.73954725  .00004322  00000-0  15408-3 0  9996
2 41999  97.3302 163.4834 0007511  17.9719 342.1786 15.29410183229137
DIDO-2                  
1 42000U 17008BE  21092.71772922  .00001420  00000-0  59337-4 0  9991
2 42000  97.3156 157.8049 0008953  30.6012 329.5747 15.25193260228845
PEASSS                  
1 42015U 17008BV  21092.85162190  .00002230  00000-0  87899-4 0  9996
2 42015  97.3185 160.1908 0006844  34.0340 326.1337 15.26604734229486
AL-FARABI 1             
1 42016U 17008BW  21092.75625045  .00002739  00000-0  10377-3 0  9999
2 42016  97.3229 161.6977 0006556  33.5905 326.5749 15.27733822229673
NAYIF-1 (EO-88)         
1 42017U 17008BX  21092.85749477  .00002906  00000-0  10976-3 0  9998
2 42017  97.3223 161.8053 0006607  32.3725 327.7918 15.27785457229716
UCLSAT                  
1 42765U 17036A   21092.85361776  .00002324  00000-0  97034-4 0  9996
2 42765  97.2590 144.7801 0012758  86.6286 273.6411 15.24550238210655
LITUANICASAT-2          
1 42768U 17036D   21092.87045169  .00003808  00000-0  15142-3 0  9993
2 42768  97.2663 145.3722 0015624  76.7185 283.5795 15.25770769209940
AALTO-1                 
1 42775U 17036L   21092.71028499  .00001394  00000-0  62971-4 0  9992
2 42775  97.2571 141.5699 0015341  83.1111 277.1871 15.22485295209672
URSA MAIOR              
1 42776U 17036M   21092.85678781  .00001551  00000-0  69222-4 0  9994
2 42776  97.2585 142.1350 0015127  82.2923 278.0031 15.22730904209715
COMPASS 2               
1 42777U 17036N   21092.88202615  .00003271  00000-0  13250-3 0  9997
2 42777  97.2646 145.6235 0013508  78.3143 281.9611 15.25278212209893
DIAMOND RED             
1 42783U 17036U   21092.86354645  .00001669  00000-0  72372-4 0  9993
2 42783  97.2598 143.7277 0013507  89.1033 271.1752 15.23642857209804
PEGASUS                 
1 42784U 17036V   21092.87858581  .00002071  00000-0  87793-4 0  9994
2 42784  97.2602 144.3669 0013315  87.6815 272.5947 15.24148614209849
DIAMOND GREEN           
1 42785U 17036W   21092.86246770  .00001786  00000-0  77217-4 0  9997
2 42785  97.2601 143.7714 0013425  89.8442 270.4334 15.23654029209876
DIAMOND BLUE            
1 42786U 17036X   21092.86151346  .00001808  00000-0  78122-4 0  9993
2 42786  97.2599 143.7638 0013265  90.0733 270.2025 15.23650223209874
NUDTSAT                 
1 42787U 17036Y   21092.91161588  .00003560  00000-0  14122-3 0  9995
2 42787  97.2657 146.5624 0012518  78.2828 281.9814 15.25933900209816
SUCHAI                  
1 42788U 17036Z   21092.78416622  .00002452  00000-0  10122-3 0  9998
2 42788  97.2608 145.1683 0012817  85.9920 274.2783 15.24879175209950
SKCUBE                  
1 42789U 17036AA  21092.86649188  .00002353  00000-0  97938-4 0  9994
2 42789  97.2602 144.9956 0012733  86.2181 274.0513 15.24642092209871
VZLUSAT-1               
1 42790U 17036AB  21092.90459085  .00003182  00000-0  12662-3 0  9997
2 42790  97.2633 146.5458 0012052  82.9845 277.2764 15.25911333209967
ROBUSTA-1B              
1 42792U 17036AD  21092.78121600  .00002370  00000-0  97971-4 0  9999
2 42792  97.2605 145.2632 0012315  86.6171 273.6476 15.24871312209896
CICERO 6                
1 42793U 17036AE  21092.92010881  .00001591  00000-0  68709-4 0  9995
2 42793  97.2581 144.3604 0011759  89.2426 271.0159 15.23862845209937
D-SAT                   
1 42794U 17036AF  21092.81951858  .00000609  00000-0  57242-4 0  9991
2 42794  97.4682 116.7064 0127149 118.3895 243.0211 14.91497877205780
CORVUS BC2              
1 42846U 17042X   21092.93058734  .00000440  00000-0  48243-4 0  9994
2 42846  97.4842 328.7677 0010551  38.5992 321.5980 14.92258130202577
CORVUS BC1              
1 42847U 17042Y   21092.90653467  .00000099  00000-0  14779-4 0  9993
2 42847  97.4846 328.9685 0010198  38.2190 321.9751 14.92360327202579
MIRATA                  
1 43015U 17073C   21092.70177932  .00001131  00000-0  91517-4 0  9994
2 43015  97.7088 359.8967 0250244 184.0630 175.8556 14.80480068182007
MAKERSAT 0              
1 43016U 17073D   21092.69983642  .00000776  00000-0  64806-4 0  9991
2 43016  97.7122 359.9777 0253812 185.9862 173.8304 14.79809076181974
DELLINGR (RBLE)         
1 43021U 98067NJ  21092.76285036  .00103215  15170-4  30933-3 0  9992
2 43021  51.6268 225.7311 0002823 334.0478  26.0387 15.92228305192549
AEROCUBE 7B (OCSD B)    
1 43042U 17071F   21092.93322054  .00009298  00000-0  18763-3 0  9997
2 43042  51.6366  82.9113 0004377  37.6290 322.5003 15.47254155187138
AEROCUBE 7C (OCSD C)    
1 43043U 17071G   21092.68953519  .00008217  00000-0  16784-3 0  9997
2 43043  51.6360  84.2941 0004635  39.3867 320.7457 15.47076888187063
CHEFSAT                 
1 43044U 17071H   21092.87124546  .00026973  00000-0  37549-3 0  9990
2 43044  51.6357  54.4036 0004006  63.9833 296.1571 15.56742313187484
ASGARDIA 1              
1 43049U 17071N   21092.55791014  .00009061  00000-0  18466-3 0  9996
2 43049  51.6419  84.2768 0002774  69.5792 290.5531 15.47002317187046
ISARA                   
1 43050U 17071P   21092.93347812  .00021581  00000-0  32901-3 0  9994
2 43050  51.6337  59.8688 0002601  75.8370 284.2909 15.54405165187413
PROPCUBE 2 (FAUNA)      
1 43052U 17071R   21092.69409032  .00009540  00000-0  18887-3 0  9990
2 43052  51.6368  80.6956 0002662  57.4157 302.7088 15.47781915187107
CORVUS BC3              
1 43118U 18004H   21092.72021352  .00001427  00000-0  61689-4 0  9994
2 43118  97.4090 166.1761 0011657 113.1053 247.1415 15.24047424179048
MICROMAS-2A             
1 43131U 18004W   21092.76981441  .00003797  00000-0  14646-3 0  9999
2 43131  97.4152 169.1854 0010215 108.7553 251.4795 15.26877782179210
SPACEBEE-4              
1 43139U 18004AE  21092.76571843  .00005393  00000-0  19472-3 0  9994
2 43139  97.4208 171.2314 0009510 108.4591 251.7683 15.28874716179327
SPACEBEE-3              
1 43140U 18004AF  21092.88576746  .00007281  00000-0  24999-3 0  9994
2 43140  97.4233 172.6237 0008983 105.8232 254.3999 15.30400984179416
SPACEBEE-2              
1 43141U 18004AG  21092.79121828  .00007347  00000-0  24818-3 0  9995
2 43141  97.4251 173.0184 0008891 105.0249 255.1977 15.30927085179423
SPACEBEE-1              
1 43142U 18004AH  21092.80217363  .00008075  00000-0  26724-3 0  9995
2 43142  97.4258 173.5176 0008730 104.4944 255.7266 15.31557903179442
CICERO 7                
1 43143U 18004AJ  21092.83904524  .00003487  00000-0  13517-3 0  9999
2 43143  97.4127 169.3424 0008493 115.6673 244.5444 15.26783652179244
GOMX-4B                 
1 43196U 18015E   21092.87333001  .00000863  00000-0  37567-4 0  9996
2 43196  97.4720 225.9931 0018884 161.4713 198.7217 15.24818295175998
GOMX-4A                 
1 43197U 18015F   21092.85846117  .00001657  00000-0  68571-4 0  9993
2 43197  97.4706 226.1799 0019061 162.7146 348.4531 15.25232412176019
TEMPEST-D               
1 43547U 98067NV  21092.80581193  .00048748  00000-0  18837-3 0  9993
2 43547  51.6331 278.1354 0003813 308.4809  51.5853 15.86738864154936
AEROCUBE 12A            
1 43556U 18046C   21092.77673601  .00003325  00000-0  12017-3 0  9990
2 43556  51.6397 154.0731 0007372 251.8250 108.1929 15.31316573151685
AEROCUBE 12B            
1 43557U 18046D   21092.77835577  .00003002  00000-0  11142-3 0  9993
2 43557  51.6400 155.5565 0007503 250.7668 109.2501 15.30791983151611
SURFSAT                 
1 43614U 18070B   21092.73666633  .00005054  00000-0  12092-3 0  9999
2 43614  93.0240 274.5132 0012036 303.4520  56.5584 15.41424515143004
CP7 (DAVE)              
1 43615U 18070C   21092.74039522  .00004993  00000-0  12051-3 0  9998
2 43615  93.0243 274.4801 0012221 303.2288  56.7795 15.41160371142995
ELFIN-B                 
1 43616U 18070D   21092.76600445  .00007975  00000-0  17705-3 0  9993
2 43616  93.0201 274.5976 0012135 301.3087  58.6981 15.43641814143092
